IRIDIUM 39              
1 25042U 97069D   25128.35733543  .00000879  00000+0  22519-3 0  9990
2 25042  86.3944 228.1940 0020068  81.9784 278.3696 14.49174523443459
IRIDIUM 38              
1 25043U 97069E   25128.09067360  .00000632  00000+0  20235-3 0  9999
2 25043  86.3954 250.0168 0001599 153.6319 206.4961 14.38083375440452
IRIDIUM 44              
1 25078U 97077B   25128.04095341  .00000528  00000+0  16066-3 0  9992
2 25078  86.3974 238.1853 0003446 125.0957 235.0565 14.40210030437956
IRIDIUM 45              
1 25104U 97082A   25128.33515049  .00018678  00000+0  68697-3 0  9994
2 25104  86.3587  67.2177 0123120 119.9955 241.3575 15.20789438446232
IRIDIUM 51              
1 25262U 98018A   25127.83351341  .00040271  00000+0  95810-3 0  9997
2 25262  86.3833  75.7690 0094893  47.2861 313.6330 15.36793673440822
